{
  "type": "FeatureCollection",
  "features": [
    {
      "type": "Feature",
      "properties": {
        "norad_id": 30208,
        "name": "FENGYUN 1C DEB",
        "group": "fengyun-1c-debris",
        "lat": -17.270290410053764,
        "lon": 178.2379291485983,
        "alt_km": 798.0641145581849,
        "timestamp": "2025-12-26T07:29:18.730333+00:00",
        "meta_object_name": "FENGYUN 1C DEB",
        "meta_object_id": "1999-025VR",
        "meta_epoch": "2025-12-25T22:29:26.468160",
        "meta_mean_motion": 14.23554114,
        "meta_eccentricity": 0.00331235,
        "meta_inclination": 98.5621,
        "meta_ra_of_asc_node": 0.5577,
        "meta_arg_of_pericenter": 230.7156,
        "meta_mean_anomaly": 206.5933,
        "meta_ephemeris_type": 0,
        "meta_classification_type": "U",
        "meta_norad_cat_id": 30208,
        "meta_element_set_no": 999,
        "meta_rev_at_epoch": 98025,
        "meta_bstar": 0.00044227568,
        "meta_mean_motion_dot": 9.69e-06,
        "meta_mean_motion_ddot": 0,
        "tle_line1": "1 30208U 99025VR  25359.93711190  .00000969  00000+0  44228-3 0  9999",
        "tle_line2": "2 30208  98.5621   0.5577 0033123 230.7156 206.5933 14.23554114980258"
      },
      "geometry": {
        "type": "Point",
        "coordinates": [
          178.2379291485983,
          -17.270290410053764
        ]
      }
    },
    {
      "type": "Feature",
      "properties": {
        "norad_id": 30209,
        "name": "FENGYUN 1C DEB",
        "group": "fengyun-1c-debris",
        "lat": 21.215800728252407,
        "lon": -6.635664285310787,
        "alt_km": 877.3812216064125,
        "timestamp": "2025-12-26T07:29:18.730343+00:00",
        "meta_object_name": "FENGYUN 1C DEB",
        "meta_object_id": "1999-025VS",
        "meta_epoch": "2025-12-25T23:08:46.705344",
        "meta_mean_motion": 14.12917026,
        "meta_eccentricity": 0.00390006,
        "meta_inclination": 98.7146,
        "meta_ra_of_asc_node": 356.4395,
        "meta_arg_of_pericenter": 200.6137,
        "meta_mean_anomaly": 213.9402,
        "meta_ephemeris_type": 0,
        "meta_classification_type": "U",
        "meta_norad_cat_id": 30209,
        "meta_element_set_no": 999,
        "meta_rev_at_epoch": 97393,
        "meta_bstar": 0.00023637999,
        "meta_mean_motion_dot": 4e-06,
        "meta_mean_motion_ddot": 0,
        "tle_line1": "1 30209U 99025VS  25359.96442946  .00000400  00000+0  23638-3 0  9995",
        "tle_line2": "2 30209  98.7146 356.4395 0039000 200.6137 213.9402 14.12917026973932"
      },
      "geometry": {
        "type": "Point",
        "coordinates": [
          -6.635664285310787,
          21.215800728252407
        ]
      }
    },
    {
      "type": "Feature",
      "properties": {
        "norad_id": 30210,
        "name": "FENGYUN 1C DEB",
        "group": "fengyun-1c-debris",
        "lat": 15.930861176596196,
        "lon": -127.04620227484911,
        "alt_km": 847.9758549092458,
        "timestamp": "2025-12-26T07:29:18.730353+00:00",
        "meta_object_name": "FENGYUN 1C DEB",
        "meta_object_id": "1999-025VT",
        "meta_epoch": "2025-12-25T17:39:18.090720",
        "meta_mean_motion": 14.0829516,
        "meta_eccentricity": 0.00567307,
        "meta_inclination": 99.189,
        "meta_ra_of_asc_node": 49.7188,
        "meta_arg_of_pericenter": 100.7716,
        "meta_mean_anomaly": 21.7429,
        "meta_ephemeris_type": 0,
        "meta_classification_type": "U",
        "meta_norad_cat_id": 30210,
        "meta_element_set_no": 999,
        "meta_rev_at_epoch": 96940,
        "meta_bstar": 0.00068658826,
        "meta_mean_motion_dot": 1.145e-05,
        "meta_mean_motion_ddot": 0,
        "tle_line1": "1 30210U 99025VT  25359.73562605  .00001145  00000+0  68659-3 0  9996",
        "tle_line2": "2 30210  99.1890  49.7188 0056730 100.7716  21.7429 14.08295160969403"
      },
      "geometry": {
        "type": "Point",
        "coordinates": [
          -127.04620227484911,
          15.930861176596196
        ]
      }
    },
    {
      "type": "Feature",
      "properties": {
        "norad_id": 30212,
        "name": "FENGYUN 1C DEB",
        "group": "fengyun-1c-debris",
        "lat": -45.10764677682194,
        "lon": 36.45092946038893,
        "alt_km": 846.8150595111783,
        "timestamp": "2025-12-26T07:29:18.730364+00:00",
        "meta_object_name": "FENGYUN 1C DEB",
        "meta_object_id": "1999-025VV",
        "meta_epoch": "2025-12-25T14:56:30.844608",
        "meta_mean_motion": 13.97065977,
        "meta_eccentricity": 0.0096975,
        "meta_inclination": 99.4564,
        "meta_ra_of_asc_node": 225.3725,
        "meta_arg_of_pericenter": 202.0401,
        "meta_mean_anomaly": 157.6577,
        "meta_ephemeris_type": 0,
        "meta_classification_type": "U",
        "meta_norad_cat_id": 30212,
        "meta_element_set_no": 999,
        "meta_rev_at_epoch": 96405,
        "meta_bstar": 0.00047375,
        "meta_mean_motion_dot": 6.41e-06,
        "meta_mean_motion_ddot": 0,
        "tle_line1": "1 30212U 99025VV  25359.62257922  .00000641  00000+0  47375-3 0  9991",
        "tle_line2": "2 30212  99.4564 225.3725 0096975 202.0401 157.6577 13.97065977964054"
      },
      "geometry": {
        "type": "Point",
        "coordinates": [
          36.45092946038893,
          -45.10764677682194
        ]
      }
    },
    {
      "type": "Feature",
      "properties": {
        "norad_id": 30213,
        "name": "FENGYUN 1C DEB",
        "group": "fengyun-1c-debris",
        "lat": -71.23212255354022,
        "lon": 105.19499756961424,
        "alt_km": 851.686143966831,
        "timestamp": "2025-12-26T07:29:18.730374+00:00",
        "meta_object_name": "FENGYUN 1C DEB",
        "meta_object_id": "1999-025VW",
        "meta_epoch": "2025-12-25T15:35:54.758976",
        "meta_mean_motion": 14.11647765,
        "meta_eccentricity": 0.0072589,
        "meta_inclination": 99.1219,
        "meta_ra_of_asc_node": 76.3042,
        "meta_arg_of_pericenter": 208.1444,
        "meta_mean_anomaly": 314.7347,
        "meta_ephemeris_type": 0,
        "meta_classification_type": "U",
        "meta_norad_cat_id": 30213,
        "meta_element_set_no": 999,
        "meta_rev_at_epoch": 96697,
        "meta_bstar": 0.0015596,
        "meta_mean_motion_dot": 2.862e-05,
        "meta_mean_motion_ddot": 0,
        "tle_line1": "1 30213U 99025VW  25359.64993934  .00002862  00000+0  15596-2 0  9990",
        "tle_line2": "2 30213  99.1219  76.3042 0072589 208.1444 314.7347 14.11647765966976"
      },
      "geometry": {
        "type": "Point",
        "coordinates": [
          105.19499756961424,
          -71.23212255354022
        ]
      }
    },
    {
      "type": "Feature",
      "properties": {
        "norad_id": 30214,
        "name": "FENGYUN 1C DEB",
        "group": "fengyun-1c-debris",
        "lat": -34.319254437064416,
        "lon": 79.52874100720261,
        "alt_km": 782.9377520473172,
        "timestamp": "2025-12-26T07:29:18.730384+00:00",
        "meta_object_name": "FENGYUN 1C DEB",
        "meta_object_id": "1999-025VX",
        "meta_epoch": "2025-12-25T21:52:02.882208",
        "meta_mean_motion": 14.31027904,
        "meta_eccentricity": 0.00201705,
        "meta_inclination": 98.723,
        "meta_ra_of_asc_node": 73.1104,
        "meta_arg_of_pericenter": 3.7365,
        "meta_mean_anomaly": 57.6974,
        "meta_ephemeris_type": 0,
        "meta_classification_type": "U",
        "meta_norad_cat_id": 30214,
        "meta_element_set_no": 999,
        "meta_rev_at_epoch": 97755,
        "meta_bstar": 0.0016078004,
        "meta_mean_motion_dot": 4.199e-05,
        "meta_mean_motion_ddot": 0,
        "tle_line1": "1 30214U 99025VX  25359.91114447  .00004199  00000+0  16078-2 0  9996",
        "tle_line2": "2 30214  98.7230  73.1104 0020170   3.7365  57.6974 14.31027904977553"
      },
      "geometry": {
        "type": "Point",
        "coordinates": [
          79.52874100720261,
          -34.319254437064416
        ]
      }
    },
    {
      "type": "Feature",
      "properties": {
        "norad_id": 30217,
        "name": "FENGYUN 1C DEB",
        "group": "fengyun-1c-debris",
        "lat": 1.4964682900017188,
        "lon": 163.77314218357637,
        "alt_km": 858.0621223426842,
        "timestamp": "2025-12-26T07:29:18.730394+00:00",
        "meta_object_name": "FENGYUN 1C DEB",
        "meta_object_id": "1999-025WA",
        "meta_epoch": "2025-12-25T22:14:26.151648",
        "meta_mean_motion": 14.24851971,
        "meta_eccentricity": 0.01406453,
        "meta_inclination": 98.4329,
        "meta_ra_of_asc_node": 343.1808,
        "meta_arg_of_pericenter": 61.5034,
        "meta_mean_anomaly": 300.0227,
        "meta_ephemeris_type": 0,
        "meta_classification_type": "U",
        "meta_norad_cat_id": 30217,
        "meta_element_set_no": 999,
        "meta_rev_at_epoch": 98261,
        "meta_bstar": 0.00027997721,
        "meta_mean_motion_dot": 6.83e-06,
        "meta_mean_motion_ddot": 0,
        "tle_line1": "1 30217U 99025WA  25359.92669157  .00000683  00000+0  27998-3 0  9991",
        "tle_line2": "2 30217  98.4329 343.1808 0140645  61.5034 300.0227 14.24851971982618"
      },
      "geometry": {
        "type": "Point",
        "coordinates": [
          163.77314218357637,
          1.4964682900017188
        ]
      }
    }
  ]
}